HTV-X1                  
1 66174U 25241A   26095.58262827  .00006811  00000+0  22482-3 0  9996
2 66174  51.6364 303.4264 0007367 276.7302  83.2841 15.32549807 25066
SZ-21 MODULE            
1 66515U 25246C   26095.54185734  .00044840  00000+0  35049-3 0  9994
2 66515  41.4755  37.8006 0003530 233.2393 126.8126 15.70809155 22293
SHENZHOU-22             
1 66645U 25272A   26095.32454765  .00033173  00000+0  37223-3 0  9999
2 66645  41.4682  45.9319 0003557 129.2727 230.8429 15.61942740281159
SOYUZ-MS 28             
1 66664U 25275A   26095.55331950  .00008543  00000+0  16420-3 0  9997
2 66664  51.6328 299.5432 0006351 274.8255  85.2008 15.48786980560502
DUPLEX                  
1 66906U 98067XS  26095.28483348  .00034554  00000+0  45585-3 0  9999
2 66906  51.6286 296.2512 0003389 238.8669 121.1991 15.58054408 19272
ISS OBJECT XT           
1 66907U 98067XT  26095.56111021  .00300489  00000+0  14687-2 0  9998
2 66907  51.6217 287.5441 0007464 256.2998 103.7173 15.80878139 19412
ISS OBJECT XU           
1 66908U 98067XU  26095.55581935  .00310882  00000+0  14909-2 0  9998
2 66908  51.6221 287.5051 0007576 255.7016 104.3145 15.81261870 19419
SILVERSAT               
1 66909U 98067XV  26095.54193433  .00493552  10205-3  17021-2 0  9996
2 66909  51.6182 285.8891 0009330 262.9398  97.0546 15.88922443 19434
ISS OBJECT XW           
1 66910U 98067XW  26094.81721722  .00228077  00000+0  12620-2 0  9991
2 66910  51.6195 291.5715 0007449 246.0581 113.9639 15.78347512 19297
ISS OBJECT XX           
1 66911U 98067XX  26095.56652283  .01084266  60875-3  19310-2 0  9994
2 66911  51.6137 283.7512 0011920 271.0584  88.9060 16.01150374 19454
ISS OBJECT XY           
1 66912U 98067XY  26095.56702667  .00130613  00000+0  10619-2 0  9997
2 66912  51.6244 290.6177 0005206 249.4061 110.6378 15.69752347 19363
KNACKSAT-2              
1 67683U 98067XZ  26095.56173917  .00046448  00000+0  70083-3 0  9997
2 67683  51.6318 298.1018 0010817 285.0563  74.9230 15.54221784  8968
